STARLINK-31322
1 59168U 24044S   26090.40971379  .00077268  00000+0  27555-2 0  9995
2 59168  43.0028 344.6819 0001470 285.6255  74.4434 15.27966167116912
